STARLINK-32615          
1 62034U 24216C   26200.43907900  .00003593  00000+0  14000-3 0  9999
2 62034  42.9984 232.3896 0001589 275.4892  84.5778 15.27582151 92867
STARLINK-32592          
1 62035U 24216D   26200.78945655  .00005201  00000+0  19839-3 0  9990
2 62035  42.9977 237.6396 0001393 271.4905  88.5787 15.27580652 94003
STARLINK-32225          
1 62036U 24216E   26200.76986414  .00006141  00000+0  23247-3 0  9999
2 62036  43.0012 230.5742 0001805 278.8071  81.2576 15.27585464 94143
STARLINK-32595          
1 62037U 24216F   26200.18941449  .00007707  00000+0  28926-3 0  9993
2 62037  42.9979 240.8770 0001684 271.6559  88.4099 15.27584963 93912
STARLINK-32477          
1 62038U 24216G   26200.34361565  .00338717  54619-4  71105-3 0  9992
2 62038  42.9776 185.0824 0022727 134.5502 225.7236 15.97627457 93411
STARLINK-32480          
1 62039U 24216H   26200.11857571  .00006732  00000+0  25393-3 0  9992
2 62039  42.9971 234.2811 0001283 275.5619  84.5086 15.27578904 92813
STARLINK-32510          
1 62040U 24216J   26200.80359017  .00004357  00000+0  16775-3 0  9997
2 62040  42.9976 237.7448 0001352 276.5266  83.5432 15.27578925 93997
STARLINK-32456          
1 62041U 24216K   26200.12241898  .00013371  00000+0  49415-3 0  9993
2 62041  43.0003 234.3139 0001686 285.8499  74.2167 15.27606143 93976
STARLINK-32509          
1 62042U 24216L   26200.43265375  .00007912  00000+0  29668-3 0  9996
2 62042  42.9989 232.3412 0001580 275.2405  84.8267 15.27586130 94021
STARLINK-32491          
1 62043U 24216M   26200.47280339  .00004794  00000+0  18360-3 0  9990
2 62043  42.9985 239.5622 0001390 281.0579  79.0116 15.27581494 93943
STARLINK-32577          
1 62044U 24216N   26200.37786219  .00005215  00000+0  19887-3 0  9992
2 62044  43.0002 239.7140 0001978 282.3816  77.6814 15.27586634 93943
STARLINK-32618          
1 62045U 24216P   26200.76857907  .00003316  00000+0  12995-3 0  9992
2 62045  42.9984 230.5539 0001403 272.8955  87.1736 15.27581110 94071
STARLINK-32598          
1 62046U 24216Q   26200.78643850  .00006189  00000+0  23413-3 0  9993
2 62046  42.9990 229.8309 0001013 260.4485  99.6252 15.27593390 94088
STARLINK-32630          
1 62047U 24216R   26200.38945233  .00009848  00000+0  36736-3 0  9997
2 62047  42.9971 239.7949 0002403 276.4868  83.5710 15.27537598 93936
STARLINK-32599          
1 62048U 24216S   26200.19712280  .00002874  00000+0  11392-3 0  9994
2 62048  42.9975 240.9308 0001376 265.8296  94.2398 15.27580583 93909
STARLINK-32473          
1 62049U 24216T   26200.36983574  .00007670  00000+0  28790-3 0  9999
2 62049  42.9979 232.7262 0001575 279.0586  81.0087 15.27586530 92852
STARLINK-32492          
1 62050U 24216U   26200.82529588  .00004312  00000+0  16616-3 0  9997
2 62050  43.0010 237.0511 0001776 285.3608  74.7047 15.27576307 94000
STARLINK-32496          
1 62051U 24216V   26200.46894960  .00005266  00000+0  20073-3 0  9998
2 62051  42.9977 239.5327 0000952 276.1005  83.9738 15.27582329 93949
STARLINK-32495          
1 62052U 24216W   26200.80729569  .00006489  00000+0  24506-3 0  9992
2 62052  43.0003 236.9085 0001771 271.2699  88.7950 15.27587099 94005
STARLINK-32494          
1 62053U 24216X   26200.44067652  .00009295  00000+0  34681-3 0  9994
2 62053  43.0015 239.3252 0002005 275.9610  84.1013 15.27586929 93940
STARLINK-32408          
1 62054U 24216Y   26200.43136722  .00004780  00000+0  18310-3 0  9994
2 62054  42.9998 232.3307 0001849 275.1704  84.8937 15.27584129 94037
STARLINK-32571          
1 62055U 24216Z   26200.12870393  .00006015  00000+0  22792-3 0  9992
2 62055  42.9983 233.4925 0001405 274.5585  85.5106 15.27582064 94085
STARLINK-11465 [DTC]    
1 62057U 24217A   26200.84999576  .00167522  00000+0  13542-2 0  9992
2 62057  53.1569 139.5486 0001239 119.7436 240.3705 15.69810849 95931
STARLINK-11426 [DTC]    
1 62058U 24217B   26200.84509209  .00131040  00000+0  10666-2 0  9993
2 62058  53.1576 139.5177 0000995 101.7380 258.3749 15.69775276 95878
STARLINK-11454 [DTC]    
1 62059U 24217C   26200.81576051  .00145331  00000+0  11806-2 0  9995
2 62059  53.1581 140.0571 0001869  87.3785 272.7447 15.69769469 95927
STARLINK-11473 [DTC]    
1 62060U 24217D   26200.57089591  .00089515  00000+0  73475-3 0  9990
2 62060  53.1570 141.3765 0001275  83.7661 276.3502 15.69743462 95882
STARLINK-11429 [DTC]    
1 62061U 24217E   26200.11049286  .00124797  00000+0  10188-2 0  9991
2 62061  53.1584 143.4761 0002574 102.0295 258.1012 15.69724269 95819
STARLINK-11470 [DTC]    
1 62062U 24217F   26200.80594998  .00131276  00000+0  10686-2 0  9996
2 62062  53.1575 139.9867 0001434 134.1693 225.9443 15.69771150 95865
STARLINK-11427 [DTC]    
1 62063U 24217G   26200.24764263  .00092440  00000+0  75816-3 0  9995
2 62063  53.1583 142.9146 0001123  52.2303 307.8817 15.69749101 95835
STARLINK-11456 [DTC]    
1 62064U 24217H   26200.85490187  .00118403  00000+0  96661-3 0  9993
2 62064  53.1566 139.5792 0001331  98.5232 261.5937 15.69751390 95934
