OBJECT_NAME,OBJECT_ID,EPOCH,MEAN_MOTION,ECCENTRICITY,INCLINATION,RA_OF_ASC_NODE,ARG_OF_PERICENTER,MEAN_ANOMALY,EPHEMERIS_TYPE,CLASSIFICATION_TYPE,NORAD_CAT_ID,ELEMENT_SET_NO,REV_AT_EPOCH,BSTAR,MEAN_MOTION_DOT,MEAN_MOTION_DDOT
STARLINK-32615,2024-216C,2026-07-19T10:32:16.425600,15.27582151,.00015893,42.9984,232.3896,275.4892,84.5778,0,U,62034,999,9286,.14000012E-3,.3593E-4,0
STARLINK-32592,2024-216D,2026-07-19T18:56:49.045920,15.27580652,.0001393,42.9977,237.6396,271.4905,88.5787,0,U,62035,999,9400,.19839E-3,.5201E-4,0
STARLINK-32225,2024-216E,2026-07-19T18:28:36.261696,15.27585464,.0001805,43.0012,230.5742,278.8071,81.2576,0,U,62036,999,9414,.23247E-3,.6141E-4,0
STARLINK-32595,2024-216F,2026-07-19T04:32:45.411936,15.27584963,.00016845,42.9979,240.8770,271.6559,88.4099,0,U,62037,999,9391,.28925906E-3,.7707E-4,0
STARLINK-32477,2024-216G,2026-07-19T08:14:48.392160,15.97627457,.00227274,42.9776,185.0824,134.5502,225.7236,0,U,62038,999,9341,.71104936E-3,.338717E-2,.54618983E-4
STARLINK-32480,2024-216H,2026-07-19T02:50:44.941344,15.27578904,.00012831,42.9971,234.2811,275.5619,84.5086,0,U,62039,999,9281,.25393238E-3,.6732E-4,0
STARLINK-32510,2024-216J,2026-07-19T19:17:10.190688,15.27578925,.0001352,42.9976,237.7448,276.5266,83.5432,0,U,62040,999,9399,.16775E-3,.4357E-4,0
STARLINK-32456,2024-216K,2026-07-19T02:56:16.999872,15.27606143,.00016869,43.0003,234.3139,285.8499,74.2167,0,U,62041,999,9397,.49415056E-3,.13371E-3,0
STARLINK-32509,2024-216L,2026-07-19T10:23:01.284000,15.27586130,.000158,42.9989,232.3412,275.2405,84.8267,0,U,62042,999,9402,.296682E-3,.7912E-4,0
STARLINK-32491,2024-216M,2026-07-19T11:20:50.212896,15.27581494,.00013908,42.9985,239.5622,281.0579,79.0116,0,U,62043,999,9394,.1836001E-3,.4794E-4,0
STARLINK-32577,2024-216N,2026-07-19T09:04:07.293216,15.27586634,.00019781,43.0002,239.7140,282.3816,77.6814,0,U,62044,999,9394,.19886714E-3,.5215E-4,0
STARLINK-32618,2024-216P,2026-07-19T18:26:45.231648,15.27581110,.0001403,42.9984,230.5539,272.8955,87.1736,0,U,62045,999,9407,.12995E-3,.3316E-4,0
STARLINK-32598,2024-216Q,2026-07-19T18:52:28.286400,15.27593390,.0001013,42.9990,229.8309,260.4485,99.6252,0,U,62046,999,9408,.23413E-3,.6189E-4,0
STARLINK-32630,2024-216R,2026-07-19T09:20:48.681312,15.27537598,.00024038,42.9971,239.7949,276.4868,83.5710,0,U,62047,999,9393,.36735785E-3,.9848E-4,0
STARLINK-32599,2024-216S,2026-07-19T04:43:51.409920,15.27580583,.00013767,42.9975,240.9308,265.8296,94.2398,0,U,62048,999,9390,.1139158E-3,.2874E-4,0
STARLINK-32473,2024-216T,2026-07-19T08:52:33.807936,15.27586530,.00015753,42.9979,232.7262,279.0586,81.0087,0,U,62049,999,9285,.28789882E-3,.767E-4,0
STARLINK-32492,2024-216U,2026-07-19T19:48:25.564032,15.27576307,.0001776,43.0010,237.0511,285.3608,74.7047,0,U,62050,999,9400,.16616E-3,.4312E-4,0
STARLINK-32496,2024-216V,2026-07-19T11:15:17.245440,15.27582329,.00009525,42.9977,239.5327,276.1005,83.9738,0,U,62051,999,9394,.20072833E-3,.5266E-4,0
STARLINK-32495,2024-216W,2026-07-19T19:22:30.347616,15.27587099,.0001771,43.0003,236.9085,271.2699,88.7950,0,U,62052,999,9400,.24506E-3,.6489E-4,0
STARLINK-32494,2024-216X,2026-07-19T10:34:34.451328,15.27586929,.00020057,43.0015,239.3252,275.9610,84.1013,0,U,62053,999,9394,.3468122E-3,.9295E-4,0
STARLINK-32408,2024-216Y,2026-07-19T10:21:10.127808,15.27584129,.00018493,42.9998,232.3307,275.1704,84.8937,0,U,62054,999,9403,.18309987E-3,.478E-4,0
STARLINK-32571,2024-216Z,2026-07-19T03:05:20.019552,15.27582064,.00014056,42.9983,233.4925,274.5585,85.5106,0,U,62055,999,9408,.22791623E-3,.6015E-4,0
STARLINK-11465 [DTC],2024-217A,2026-07-19T20:23:59.633664,15.69810849,.0001239,53.1569,139.5486,119.7436,240.3705,0,U,62057,999,9593,.13542E-2,.167522E-2,0
STARLINK-11426 [DTC],2024-217B,2026-07-19T20:16:55.956576,15.69775276,.0000995,53.1576,139.5177,101.7380,258.3749,0,U,62058,999,9587,.10666E-2,.13104E-2,0
STARLINK-11454 [DTC],2024-217C,2026-07-19T19:34:41.708064,15.69769469,.0001869,53.1581,140.0571,87.3785,272.7447,0,U,62059,999,9592,.11806E-2,.145331E-2,0
STARLINK-11473 [DTC],2024-217D,2026-07-19T13:42:05.406624,15.69743462,.0001275,53.1570,141.3765,83.7661,276.3502,0,U,62060,999,9588,.73475E-3,.89515E-3,0
STARLINK-11429 [DTC],2024-217E,2026-07-19T02:39:06.583104,15.69724269,.00025743,53.1584,143.4761,102.0295,258.1012,0,U,62061,999,9581,.10188343E-2,.124797E-2,0
STARLINK-11470 [DTC],2024-217F,2026-07-19T19:20:34.078272,15.69771150,.0001434,53.1575,139.9867,134.1693,225.9443,0,U,62062,999,9586,.10686E-2,.131276E-2,0
STARLINK-11427 [DTC],2024-217G,2026-07-19T05:56:36.323232,15.69749101,.00011239,53.1583,142.9146,52.2303,307.8817,0,U,62063,999,9583,.7581561E-3,.9244E-3,0
STARLINK-11456 [DTC],2024-217H,2026-07-19T20:31:03.521568,15.69751390,.0001331,53.1566,139.5792,98.5232,261.5937,0,U,62064,999,9593,.96661E-3,.118403E-2,0
